OPS 6582 (TRANSIT 5B-5) 
1 00965U 64083D   22127.79150156  .00000063  00000+0  75623-4 0  9994
2 00965  90.0291 195.3182 0040468 350.8529 132.7290 13.56776995840000
OSCAR 7 (AO-7)          
1 07530U 74089B   22127.87965360 -.00000027  00000+0  11872-3 0  9992
2 07530 101.9024 107.6254 0012555 118.5892 297.2965 12.53654634172381
UOSAT 2 (UO-11)         
1 14781U 84021B   22128.52504228  .00000767  00000+0  99103-4 0  9994
2 14781  97.6163 117.7851 0010061  92.7117 267.5250 14.83600430 55129
NOAA 9                  
1 15427U 84123A   22128.17040594  .00000112  00000+0  79614-4 0  9996
2 15427  99.0424  99.9293 0013749 280.6048  89.9803 14.16191792931148
LUSAT (LO-19)           
1 20442U 90005G   22127.88431281  .00000119  00000+0  60251-4 0  9993
2 20442  98.7907  92.1338 0010674 290.2920  69.7116 14.33050285687295
ITAMSAT (IO-26)         
1 22826U 93061D   22128.52951081  .00000077  00000+0  47198-4 0  9991
2 22826  98.8849 158.5979 0009576 148.9722 211.2027 14.30508907492953
RADIO ROSTO (RS-15)     
1 23439U 94085A   22128.57505300 -.00000037  00000+0  15882-3 0  9994
2 23439  64.8121 210.1120 0167591 279.3795  78.8215 11.27571522126994
JAS-2 (FO-29)           
1 24278U 96046B   22128.50442317 -.00000012  00000+0  23022-4 0  9995
2 24278  98.5200 157.6785 0350774  27.1324 334.7677 13.53114493270452
NOAA 15                 
1 25338U 98030A   22128.49906017  .00000164  00000+0  86719-4 0  9997
2 25338  98.6476 158.5503 0011338  58.4998 301.7288 14.26119797247570
TECHSAT 1B (GO-32)      
1 25397U 98043D   22128.44141919  .00000065  00000+0  48084-4 0  9996
2 25397  98.8147  78.8107 0000903 165.1090 195.0115 14.23749178237954
ISS (ZARYA)             
1 25544U 98067A   22128.40039874  .00006919  00000+0  12913-3 0  9993
2 25544  51.6428 173.6307 0006707  76.8335 296.2736 15.49987304339018
ORSTED                  
1 25635U 99008B   22127.66102430  .00000301  00000+0  79285-4 0  9991
2 25635  96.4657   2.1094 0137055 312.0584  46.9018 14.48449275224374
PHASE 3D (AO-40)        
1 26609U 00072B   22127.17405217 -.00000085  00000+0  00000+0 0  9995
2 26609   7.1618 278.4796 7989075   3.0041 359.5260  1.25588501 98635
PCSAT (NO-44)           
1 26931U 01043C   22128.46538440  .00000065  00000+0  56425-4 0  9994
2 26931  67.0496 161.6132 0007978 269.2119  90.8068 14.30692644 75840
SAUDISAT 1C (SO-50)     
1 27607U 02058C   22128.41688786  .00000848  00000+0  13752-3 0  9990
2 27607  64.5556  64.4123 0076142 302.3128  57.0615 14.76065556 42672
CUTE-1 (CO-55)          
1 27844U 03031E   22127.76918886  .00000251  00000+0  13222-3 0  9999
2 27844  98.6799 136.0686 0009139 213.8564 146.2031 14.22429394978085
CUBESAT XI-IV (CO-57)   
1 27848U 03031J   22127.86026928  .00000188  00000+0  10475-3 0  9997
2 27848  98.6846 136.6860 0008803 228.8972 131.1446 14.21989300977919
MOZHAYETS 4 (RS-22)     
1 27939U 03042A   22128.50562946  .00000754  00000+0  14233-3 0  9992
2 27939  98.1858 269.2510 0012173 339.5472  20.5243 14.67292964995181
INMARSAT 4-F1           
1 28628U 05009A   22128.12757385 -.00000254  00000+0  00000+0 0  9993
2 28628   3.5843  34.6310 0002982  15.6665   5.0648  1.00272832 62611
NOAA 18                 
1 28654U 05018A   22128.47394112  .00000156  00000+0  10785-3 0  9990
2 28654  98.9505 198.9386 0015378  85.8643 274.4286 14.12724220874428
CUBESAT XI-V            
1 28895U 05043F   22127.92925847  .00000855  00000+0  17106-3 0  9999
2 28895  98.1003 259.9482 0015331 268.3890  91.5557 14.64258891881718
METOP-A                 
1 29499U 06044A   22127.86804691  .00001267  00000+0  17574-3 0  9995
2 29499  98.4542 171.1811 0199310 135.0518  36.4859 14.67105278804720
CARTOSAT-2 (IRS-P7)     
1 29710U 07001B   22127.83080121  .00023355  00000+0  60401-3 0  9995
2 29710  97.8622 231.0063 0156107 199.3673 160.1593 15.27521797830033
FALCONSAT-3             
1 30776U 07006E   22128.18675373  .00038959  00000+0  65994-3 0  9990
2 30776  35.4307 163.5203 0001030 189.2926 170.7786 15.50510110843323
CAPE-1                  
1 31130U 07012P   22127.79117160  .00001163  00000+0  25321-3 0  9990
2 31130  98.2671  68.6481 0096618  59.7068 301.3647 14.57020204799162
CARTOSAT-2A             
1 32783U 08021A   22128.49383474  .00000670  00000+0  98561-4 0  9996
2 32783  97.9677 189.1238 0011656 300.1535  59.8511 14.78646734757118
CUTE-1.7+APD II (CO-65) 
1 32785U 08021C   22128.45981498  .00001938  00000+0  20925-3 0  9990
2 32785  97.6547 100.5876 0013101  14.3321 345.8266 14.89421231760600
COMPASS-1               
1 32787U 08021E   22127.90623259  .00004525  00000+0  41350-3 0  9999
2 32787  97.5613 111.3052 0009699 284.7091  75.3055 14.95471286761991
AAUSAT-II               
1 32788U 08021F   22127.87278913  .00003635  00000+0  31965-3 0  9991
2 32788  97.5326 114.6409 0009475 258.4963 101.5196 14.97106365762368
DELFI-C3 (DO-64)        
1 32789U 08021G   22127.81738628  .00013728  00000+0  78505-3 0  9995
2 32789  97.3430 155.6083 0012866 105.7585 254.5067 15.12714713765783
SEEDS II (CO-66)        
1 32791U 08021J   22127.68225254  .00003871  00000+0  38266-3 0  9997
2 32791  97.6095 105.3754 0011853 334.0107  26.0516 14.92422845761118
YUBILEINY (RS-30)       
1 32953U 08025A   22128.29836808  .00000021  00000+0  80971-4 0  9997
2 32953  82.5069 208.8943 0018688 351.8740   8.2037 12.43109505633346
FENGYUN 3A              
1 32958U 08026A   22128.47945590  .00000096  00000+0  66471-4 0  9993
2 32958  98.4993  92.7525 0009513 133.3428 226.8543 14.18711101722661
PRISM (HITOMI)          
1 33493U 09002B   22128.51091276  .00005612  00000+0  46274-3 0  9998
2 33493  98.2323 112.8131 0011375 300.4799  59.5299 14.99431179723006
STARS (KUKAI)           
1 33498U 09002G   22127.68339633  .00001517  00000+0  20823-3 0  9994
2 33498  98.1734  18.9873 0011514  29.9129 330.2738 14.79863695715402
KKS-1 (KISEKI)          
1 33499U 09002H   22128.17732858  .00000717  00000+0  11202-3 0  9998
2 33499  98.2233   9.5454 0010426  84.6890 275.5508 14.75946399714733
NOAA 19                 
1 33591U 09005A   22128.54144116  .00000146  00000+0  10435-3 0  9992
2 33591  99.1517 161.8324 0012951 302.2082  57.7833 14.12559598682812
SWISSCUBE               
1 35932U 09051B   22127.85376582  .00000581  00000+0  14072-3 0  9995
2 35932  98.5738 342.6501 0007719 163.3076 196.8376 14.56802971670180
BEESAT-1                
1 35933U 09051C   22128.15277980  .00000544  00000+0  13225-3 0  9990
2 35933  98.5680 344.6140 0005698 171.9451 188.1839 14.56827721670384
ITUPSAT1                
1 35935U 09051E   22128.14562677  .00000492  00000+0  12313-3 0  9990
2 35935  98.5781 344.6729 0007922 178.3938 181.7285 14.55941360670046
XIWANG-1 (HOPE-1)       
1 36122U 09072B   22128.21746932 -.00000036  00000+0  17750-4 0  9994
2 36122 100.1800 101.0604 0008202  75.1998 285.0024 13.16368391595628
CARTOSAT-2B             
1 36795U 10035A   22128.46422346  .00000722  00000+0  10554-3 0  9993
2 36795  97.9621 189.2648 0014003  19.1481 341.0258 14.78636010638158
TISAT 1                 
1 36799U 10035E   22128.50274345  .00002172  00000+0  21653-3 0  9999
2 36799  98.1870 337.3714 0010975 222.6967 137.3399 14.92665191642004
FENGYUN 3B              
1 37214U 10059A   22128.52071381  .00000032  00000+0  41037-4 0  9997
2 37214  99.0935 133.7848 0023234 107.0540 253.3177 14.14252708595314
JUGNU                   
1 37839U 11058B   22128.52236083  .00000418  00000+0  80914-4 0  9997
2 37839  19.9618  57.6612 0019030  76.9302  81.0177 14.12775707546597
SRMSAT                  
1 37841U 11058D   22128.15845674  .00000378  00000+0  62313-4 0  9999
2 37841  19.9706 138.4824 0011646 261.2604 161.2406 14.10746433545766
M-CUBED & EXP-1 PRIME   
1 37855U 11061F   22128.20015829  .00016176  00000+0  72065-3 0  9992
2 37855 101.7041 226.0471 0157066 182.9968 177.0321 15.11166621575620
HORYU-2                 
1 38340U 12025D   22128.49892134  .00001224  00000+0  18314-3 0  9991
2 38340  98.1949 206.2989 0011200   2.8448 357.2823 14.76521423536757
METOP-B                 
1 38771U 12049A   22128.52056060  .00000074  00000+0  53799-4 0  9998
2 38771  98.6987 188.8575 0001676 127.8868  12.0873 14.21500463500054
SARAL                   
1 39086U 13009A   22128.49397956  .00000058  00000+0  37653-4 0  9996
2 39086  98.5480 314.7284 0001987  59.6712 300.4668 14.32036683480764
AAUSAT 3                
1 39087U 13009B   22128.49287255  .00000568  00000+0  20938-3 0  9990
2 39087  98.4025 329.0549 0012978  29.8068 330.3856 14.36137375481842
STRAND-1                
1 39090U 13009E   22128.14470156  .00000223  00000+0  92717-4 0  9993
2 39090  98.4076 327.3287 0009864  37.7870 322.4007 14.35280671481635
BRITE-AUSTRIA           
1 39091U 13009F   22128.54714103  .00000123  00000+0  57859-4 0  9998
2 39091  98.4090 326.8840 0011274  42.1147 318.0903 14.35259852481718
UNIBRITE                
1 39092U 13009G   22127.79827820  .00000140  00000+0  64039-4 0  9993
2 39092  98.4123 325.9094 0010164  40.3592 319.8347 14.35130325481554
SOMP                    
1 39134U 13015E   22128.17970924  .00015840  00000+0  58615-3 0  9999
2 39134  64.8615 193.9547 0033956 288.0391  71.7041 15.27309318501080
BEESAT-3                
1 39135U 13015F   22128.54508803  .00011133  00000+0  47104-3 0  9996
2 39135  64.8662 227.8841 0036042 295.0172  64.7216 15.22989281500466
BEESAT-2                
1 39136U 13015G   22128.56848061  .00010813  00000+0  47714-3 0  9993
2 39136  64.8746 235.7235 0013739 295.4391  64.5315 15.22080014500329
NEE-01 PEGASO           
1 39151U 13018B   22128.51128400  .00001168  00000+0  15797-3 0  9995
2 39151  97.9871 234.3233 0017351  29.2376 330.9803 14.80826761487770
CUBEBUG-1 (CAPITAN BETO)
1 39153U 13018D   22128.25950885  .00001499  00000+0  19761-3 0  9990
2 39153  98.0080 238.3459 0017075  24.8540 335.3491 14.81501185487882
